XRISM                   
1 57800U 23137A   24151.93953519  .00005811  00000+0  43773-3 0  9994
2 57800  31.0022 122.3886 0009355  36.2494 323.8774 15.01019469 40015
